H1 CPF  1  HTS 2022 10  6 12  7791 larets           NONE
H2  0304206 5557    27944 2022 10 06  0  0  0 2022 10 11  0  0  0   180 1 1  0 0 0
H5  0.0560 
H9 
10 0 59857  85320.00000  0   -4349186.382   -2413013.824   -5017940.817
10 0 59857  85500.00000  0   -3606803.489   -1629660.579   -5851278.879
10 0 59857  85680.00000  0   -2712658.186    -808732.481   -6471028.824
10 0 59857  85860.00000  0   -1698657.835      16439.548   -6854696.566
10 0 59857  86040.00000  0    -601857.455     813309.578   -6988346.722
10 0 59857  86220.00000  0     536888.952    1551382.311   -6867072.142
10 0 59858      0.00000  0    1674428.859    2203364.976   -6495169.904
10 0 59858    180.00000  0    2766929.361    2746173.691   -5886016.968
10 0 59858    360.00000  0    3771559.710    3161760.596   -5061632.898
10 0 59858    540.00000  0    4648179.463    3437732.694   -4051941.056
10 0 59858    720.00000  0    5360977.410    3567740.625   -2893733.255
10 0 59858    900.00000  0    5879982.741    3551613.785   -1629355.116
10 0 59858   1080.00000  0    6182375.458    3395232.552    -305153.763
10 0 59858   1260.00000  0    6253523.689    3110134.093    1030255.446
10 0 59858   1440.00000  0    6087688.048    2712869.124    2327827.477
10 0 59858   1620.00000  0    5688350.422    2224146.581    3539947.307
10 0 59858   1800.00000  0    5068150.090    1667809.683    4622226.272
10 0 59858   1980.00000  0    4248432.611    1069700.238    5535146.882
10 0 59858   2160.00000  0    3258450.814     456474.195    6245493.709
10 0 59858   2340.00000  0    2134254.523    -145573.157    6727522.537
10 0 59858   2520.00000  0     917336.626    -711616.091    6963836.276
10 0 59858   2700.00000  0    -346915.759   -1219305.137    6945965.965
10 0 59858   2880.00000  0   -1610913.002   -1649636.337    6674639.266
10 0 59858   3060.00000  0   -2826636.149   -1987653.383    6159739.045
10 0 59858   3240.00000  0   -3947439.861   -2222961.129    5419967.181
10 0 59858   3420.00000  0   -4929845.761   -2350044.105    4482211.949
10 0 59858   3600.00000  0   -5735252.286   -2368373.479    3380611.866
10 0 59858   3780.00000  0   -6331487.898   -2282293.292    2155347.636
10 0 59858   3960.00000  0   -6694147.348   -2100695.200     851195.866
10 0 59858   4140.00000  0   -6807639.850   -1836491.200    -484120.528
10 0 59858   4320.00000  0   -6665883.313   -1505904.570   -1801713.292
10 0 59858   4500.00000  0   -6272605.543   -1127618.027   -3053362.672
10 0 59858   4680.00000  0   -5641237.321    -721826.233   -4193318.311
10 0 59858   4860.00000  0   -4794408.626    -309239.736   -5179990.506
10 0 59858   5040.00000  0   -3763077.218      89908.688   -5977461.273
10 0 59858   5220.00000  0   -2585337.547     456803.737   -6556759.106
10 0 59858   5400.00000  0   -1304974.883     774890.759   -6896860.638
10 0 59858   5580.00000  0      30174.022    1030588.952   -6985405.863
10 0 59858   5760.00000  0    1369993.637    1213852.192   -6819115.686
10 0 59858   5940.00000  0    2663946.800    1318559.045   -6403918.399
10 0 59858   6120.00000  0    3862969.097    1342721.283   -5754766.674
10 0 59858   6300.00000  0    4921330.555    1288500.799   -4895144.573
10 0 59858   6480.00000  0    5798408.313    1162035.125   -3856276.140
10 0 59858   6660.00000  0    6460302.411     973076.142   -2676037.599
10 0 59858   6840.00000  0    6881219.322     734453.625   -1397601.000
10 0 59858   7020.00000  0    7044553.448     461386.559     -67845.224
10 0 59858   7200.00000  0    6943595.711     170674.565    1264402.935
10 0 59858   7380.00000  0    6581831.810    -120187.861    2550216.837
10 0 59858   7560.00000  0    5972807.863    -393929.037    3742427.409
10 0 59858   7740.00000  0    5139569.180    -634397.765    4797395.642
10 0 59858   7920.00000  0    4113716.703    -827392.801    5676623.379
10 0 59858   8100.00000  0    2934130.531    -961384.087    6348140.973
10 0 59858   8280.00000  0    1645434.969   -1028090.940    6787625.336
10 0 59858   8460.00000  0     296275.465   -1022898.313    6979228.904
10 0 59858   8640.00000  0   -1062529.585    -945094.652    6916101.843
10 0 59858   8820.00000  0   -2379890.483    -797924.374    6600603.451
10 0 59858   9000.00000  0   -3606343.568    -588453.360    6044211.679
10 0 59858   9180.00000  0   -4695896.066    -327252.537    5267135.660
10 0 59858   9360.00000  0   -5607764.589     -27911.333    4297626.264
10 0 59858   9540.00000  0   -6307937.127     293602.904    3170991.028
10 0 59858   9720.00000  0   -6770492.906     619715.444    1928341.039
10 0 59858   9900.00000  0   -6978623.679     932111.957     615102.845
10 0 59858  10080.00000  0   -6925298.570    1212660.385    -720658.818
10 0 59858  10260.00000  0   -6613526.953    1444340.753   -2030038.009
10 0 59858  10440.00000  0   -6056205.540    1612133.428   -3265119.203
10 0 59858  10620.00000  0   -5275558.754    1703821.975   -4380769.371
10 0 59858  10800.00000  0   -4302195.829    1710663.312   -5336303.620
10 0 59858  10980.00000  0   -3173849.459    1627895.467   -6096953.142
10 0 59858  11160.00000  0   -1933866.428    1455061.552   -6635091.872
10 0 59858  11340.00000  0    -629515.657    1196138.507   -6931191.954
10 0 59858  11520.00000  0     689814.900     859467.479   -6974483.653
10 0 59858  11700.00000  0    1974466.383     457490.479   -6763324.203
10 0 59858  11880.00000  0    3176360.291       6297.990   -6305268.585
10 0 59858  12060.00000  0    4250790.322    -474999.501   -5616828.485
10 0 59858  12240.00000  0    5158095.589    -965057.013   -4722926.767
10 0 59858  12420.00000  0    5865165.744   -1441213.043   -3656054.184
10 0 59858  12600.00000  0    6346714.285   -1880505.625   -2455131.676
10 0 59858  12780.00000  0    6586256.247   -2260742.665   -1164107.614
10 0 59858  12960.00000  0    6576735.706   -2561574.048     169665.000
10 0 59858  13140.00000  0    6320764.286   -2765508.766    1497206.847
10 0 59858  13320.00000  0    5830451.112   -2858821.388    2769770.434
10 0 59858  13500.00000  0    5126827.130   -2832298.189    3940688.594
10 0 59858  13680.00000  0    4238899.782   -2681780.816    4967122.581
10 0 59858  13860.00000  0    3202401.212   -2408485.906    5811636.501
10 0 59858  14040.00000  0    2058290.750   -2019088.588    6443542.764
10 0 59858  14220.00000  0     851092.645   -1525567.867    6839970.037
10 0 59858  14400.00000  0    -372856.774    -944827.790    6986636.270
10 0 59858  14580.00000  0   -1567184.770    -298108.597    6878314.715
10 0 59858  14760.00000  0   -2687220.258     389790.124    6518994.534
10 0 59858  14940.00000  0   -3691645.916    1091451.325    5921739.055
10 0 59858  15120.00000  0   -4544018.470    1777918.085    5108242.648
10 0 59858  15300.00000  0   -5214110.112    2419873.145    4108088.038
10 0 59858  15480.00000  0   -5679016.960    2988879.440    2957712.085
10 0 59858  15660.00000  0   -5923985.444    3458628.150    1699107.872
10 0 59858  15840.00000  0   -5942921.313    3806140.260     378299.390
10 0 59858  16020.00000  0   -5738544.222    4012858.217    -956363.032
10 0 59858  16200.00000  0   -5322176.617    4065568.123   -2256010.400
10 0 59858  16380.00000  0   -4713172.906    3957104.065   -3473091.965
10 0 59858  16560.00000  0   -3938014.309    3686792.071   -4563150.054
10 0 59858  16740.00000  0   -3029127.942    3260616.343   -5486450.896
10 0 59858  16920.00000  0   -2023499.867    2691107.312   -6209410.411
10 0 59858  17100.00000  0    -961149.790    1996962.242   -6705777.324
10 0 59858  17280.00000  0     116469.442    1202414.248   -6957537.036
10 0 59858  17460.00000  0    1168077.552     336381.169   -6955522.668
10 0 59858  17640.00000  0    2154130.945    -568578.390   -6699732.195
10 0 59858  17820.00000  0    3038297.221   -1477474.419   -6199338.142
10 0 59858  18000.00000  0    3788791.869   -2354220.112   -5472393.185
10 0 59858  18180.00000  0    4379540.878   -3163055.455   -4545235.351
10 0 59858  18360.00000  0    4791124.447   -3870014.867   -3451586.893
10 0 59858  18540.00000  0    5011458.113   -4444370.992   -2231367.813
10 0 59858  18720.00000  0    5036183.222   -4859993.175    -929252.602
10 0 59858  18900.00000  0    4868735.448   -5096551.740     406985.396
10 0 59858  19080.00000  0    4520077.814   -5140498.679    1728274.936
10 0 59858  19260.00000  0    4008110.188   -4985765.342    2986110.236
10 0 59858  19440.00000  0    3356786.646   -4634141.282    4134384.698
10 0 59858  19620.00000  0    2594992.745   -4095317.941    5131113.532
10 0 59858  19800.00000  0    1755245.651   -3386598.181    5939971.301
10 0 59858  19980.00000  0     872285.814   -2532294.743    6531589.271
10 0 59858  20160.00000  0     -18372.930   -1562851.645    6884571.443
10 0 59858  20340.00000  0    -881869.059    -513733.253    6986211.814
10 0 59858  20520.00000  0   -1685343.397     575880.515    6832910.029
10 0 59858  20700.00000  0   -2399173.982    1664549.656    6430279.660
10 0 59858  20880.00000  0   -2998057.962    2710134.121    5792950.638
10 0 59858  21060.00000  0   -3461908.725    3671412.656    4944071.613
10 0 59858  21240.00000  0   -3776542.492    4509709.711    3914516.280
10 0 59858  21420.00000  0   -3934126.095    5190471.032    2741803.833
10 0 59858  21600.00000  0   -3933362.675    5684719.606    1468755.897
10 0 59858  21780.00000  0   -3779402.533    5970317.489     141933.895
10 0 59858  21960.00000  0   -3483484.314    6032974.597   -1190084.726
10 0 59858  22140.00000  0   -3062315.780    5866942.898   -2478530.962
10 0 59858  22320.00000  0   -2537219.105    5475347.999   -3676277.237
10 0 59858  22500.00000  0   -1933095.351    4870149.870   -4739587.122
10 0 59858  22680.00000  0   -1277268.084    4071740.920   -5629712.837
10 0 59858  22860.00000  0    -598264.919    3108213.747   -6314282.267
10 0 59858  23040.00000  0      75410.013    2014331.330   -6768438.728
10 0 59858  23220.00000  0     716457.401     830246.781   -6975694.748
99
